     3.00           N: GNSS NAV DATA    E: Galileo          RINEX VERSION / TYPE
PREC2NAV                                20121215 063324 UTC PGM / RUN BY / DATE 
SOURCE: data/tum%W%D.sp3                                    COMMENT             
                                                            END OF HEADER       
E12 2012 11 22 14  0  0  .565980956760E-03  .850716205128E-10  .000000000000E+00
      .800000000000E+01 -.605870919349E+02  .355130931542E-08 -.230229824667E+01
     -.280543559881E-05  .792394416126E-04  .597802339839E-05  .544060485273E+04
      .396000000000E+06 -.222449329524E-07  .106866213610E+01 -.715815264266E-07
      .956293451130E+00  .209096138359E+03 -.297236499669E+01 -.583934358625E-08
     -.174147233667E-09  .000000000000E+00  .171500000000E+04  .000000000000E+00
      .240000000000E+01  .000000000000E+00  .000000000000E+00  .000000000000E+00
      .399600000000E+06  .000000000000E+00
E11 2012 11 22 16  0  0  .699957530000E-03  .386733187179E-09  .000000000000E+00
      .900000000000E+01 -.617525267474E+02  .356659211417E-08 -.457097558749E+00
     -.292739456103E-05  .119635838606E-03  .590790376527E-05  .544060684560E+04
      .403200000000E+06  .187220586347E-08  .106864560567E+01 -.507708893764E-07
      .956280437607E+00  .212584881496E+03  .165416995942E+01 -.584310937606E-08
     -.114789006286E-09  .000000000000E+00  .171500000000E+04  .000000000000E+00
      .240000000000E+01  .000000000000E+00  .000000000000E+00  .000000000000E+00
      .406800000000E+06  .000000000000E+00
E12 2012 11 22 16  0  0  .566593439760E-03  .850582923077E-10  .000000000000E+00
      .900000000000E+01 -.652438754366E+02  .362138707867E-08 -.143408848175E+01
     -.299992180927E-05  .799352513717E-04  .537925106187E-05  .544060056537E+04
      .403200000000E+06  .231620478907E-07  .106861963287E+01 -.189248318641E-07
      .956292388991E+00  .222789365615E+03 -.294794145480E+01 -.585563689807E-08
     -.119173519092E-09  .000000000000E+00  .171500000000E+04  .000000000000E+00
      .240000000000E+01  .000000000000E+00  .000000000000E+00  .000000000000E+00
      .406800000000E+06  .000000000000E+00
E11 2012 11 22 18  0  0  .702741928040E-03  .386692697436E-09  .000000000000E+00
      .100000000000E+02 -.627476760420E+02  .358381037712E-08  .433742861154E+00
     -.294889755060E-05  .117895977721E-03  .522659146497E-05  .544060321346E+04
      .410400000000E+06  .228995800108E-07  .106860342461E+01 -.229434059851E-07
      .956279695323E+00  .224919024139E+03  .165596156594E+01 -.585066372030E-08
     -.996733281036E-10  .000000000000E+00  .171500000000E+04  .000000000000E+00
      .240000000000E+01  .000000000000E+00  .000000000000E+00  .000000000000E+00
      .414000000000E+06  .000000000000E+00
E12 2012 11 22 18  0  0  .567205697040E-03  .850267435897E-10  .000000000000E+00
      .100000000000E+02 -.656289143076E+02  .362767618544E-08 -.541328286208E+00
     -.299343483525E-05  .799717503757E-04  .536393001746E-05  .544060060787E+04
      .410400000000E+06  .311288437371E-07  .106857754394E+01  .614437707449E-08
      .956291382460E+00  .223141919110E+03 -.294806744849E+01 -.587831372842E-08
     -.133233799635E-09  .000000000000E+00  .171500000000E+04  .000000000000E+00
      .240000000000E+01  .000000000000E+00  .000000000000E+00  .000000000000E+00
      .414000000000E+06  .000000000000E+00
E11 2012 11 22 20  0  0  .705526268640E-03  .386746925641E-09  .000000000000E+00
      .110000000000E+02 -.624937348989E+02  .358234205009E-08  .132723384891E+01
     -.285338696803E-05  .117866834420E-03  .528812458244E-05  .544060299638E+04
      .417600000000E+06  .338040347531E-07  .106856135013E+01  .127555231911E-07
      .956278736298E+00  .224173627553E+03  .165510313798E+01 -.588390081960E-08
     -.119200488250E-09  .000000000000E+00  .171500000000E+04  .000000000000E+00
      .240000000000E+01  .000000000000E+00  .000000000000E+00  .000000000000E+00
      .421200000000E+06  .000000000000E+00
E12 2012 11 22 20  0  0  .567818101280E-03  .850843179487E-10  .000000000000E+00
      .110000000000E+02 -.658462579209E+02  .363205708485E-08  .349845719279E+00
     -.302287758477E-05  .793015845135E-04  .564294282256E-05  .544059920825E+04
      .417600000000E+06  .259038889758E-07  .106853520054E+01  .155222029798E-07
      .956290388366E+00  .218241374616E+03 -.294660674619E+01 -.588276259343E-08
     -.135726178819E-09  .000000000000E+00  .171500000000E+04  .000000000000E+00
      .240000000000E+01  .000000000000E+00  .000000000000E+00  .000000000000E+00
      .421200000000E+06  .000000000000E+00
E11 2012 11 22 22  0  0  .708310927440E-03  .386785289744E-09  .000000000000E+00
      .120000000000E+02 -.620154536593E+02  .356948838538E-08  .222310177418E+01
     -.285452865767E-05  .117784701579E-03  .549601573189E-05  .544060226798E+04
      .424800000000E+06  .337905924730E-07  .106851905837E+01  .317951073949E-07
      .956277923049E+00  .220733634079E+03 -.463131700917E+01 -.587179230208E-08
     -.125874462731E-09  .000000000000E+00  .171500000000E+04  .000000000000E+00
      .240000000000E+01  .000000000000E+00  .000000000000E+00  .000000000000E+00
      .428400000000E+06  .000000000000E+00
E12 2012 11 22 22  0  0  .568430844240E-03  .851254923077E-10  .000000000000E+00
      .120000000000E+02 -.545993838828E+02  .354568032978E-08  .122567656324E+01
     -.262404333488E-05  .805239008777E-04  .586337180581E-05  .544060296829E+04
      .424800000000E+06  .157107741940E-07  .106849297437E+01  .233608561349E-07
      .956289415000E+00  .212052935696E+03 -.292980377331E+01 -.587287741241E-08
     -.145504168314E-09  .000000000000E+00  .171500000000E+04  .000000000000E+00
      .240000000000E+01  .000000000000E+00  .000000000000E+00  .000000000000E+00
      .428400000000E+06  .000000000000E+00
E11 2012 11 23  0  0  0  .711096127440E-03  .386907479487E-09  .000000000000E+00
      .130000000000E+02 -.525704288170E+02  .350205565923E-08  .310829058682E+01
     -.245643679131E-05  .116199504745E-03  .586287356689E-05  .544060601849E+04
      .432000000000E+06 -.595002576656E-08  .106847691227E+01  .755749935185E-07
      .956276979420E+00  .212206616598E+03 -.462387406153E+01 -.585178672334E-08
     -.125344366062E-09  .000000000000E+00  .171500000000E+04  .000000000000E+00
      .240000000000E+01  .000000000000E+00  .000000000000E+00  .000000000000E+00
      .435600000000E+06  .000000000000E+00
E12 2012 11 23  0  0  0  .569044094280E-03  .852474692308E-10  .000000000000E+00
      .130000000000E+02 -.491555041918E+02  .355359508781E-08  .212593116351E+01
     -.229832979383E-05  .808263202696E-04  .566096632904E-05  .544060163858E+04
      .432000000000E+06  .747986805655E-07  .106845096904E+01  .120813706346E-06
      .956288250589E+00  .213759366958E+03 -.293742609933E+01 -.592556164439E-08
     -.172628689988E-09  .000000000000E+00  .171500000000E+04  .000000000000E+00
      .240000000000E+01  .000000000000E+00  .000000000000E+00  .000000000000E+00
      .435600000000E+06  .000000000000E+00
